[{"OBJECT_NAME":"STARLINK-3201","OBJECT_ID":"2021-115AZ","EPOCH":"2026-03-09T11:16:45.144480","MEAN_MOTION":15.08836744,"ECCENTRICITY":0.00013148,"INCLINATION":53.2162,"RA_OF_ASC_NODE":140.1106,"ARG_OF_PERICENTER":83.0787,"MEAN_ANOMALY":277.0355,"EPHEMERIS_TYPE":0,"CLASSIFICATION_TYPE":"U","NORAD_CAT_ID":49771,"ELEMENT_SET_NO":999,"REV_AT_EPOCH":23564,"BSTAR":8.230135e-6,"MEAN_MOTION_DOT":-1.57e-6,"MEAN_MOTION_DDOT":0},{"OBJECT_NAME":"FENGYUN 1C DEB","OBJECT_ID":"1999-025CKC","EPOCH":"2026-03-08T17:03:17.573184","MEAN_MOTION":15.04248193,"ECCENTRICITY":0.00988517,"INCLINATION":98.9933,"RA_OF_ASC_NODE":156.7578,"ARG_OF_PERICENTER":358.897,"MEAN_ANOMALY":1.2019,"EPHEMERIS_TYPE":0,"CLASSIFICATION_TYPE":"U","NORAD_CAT_ID":31877,"ELEMENT_SET_NO":999,"REV_AT_EPOCH":332,"BSTAR":0.0010830251,"MEAN_MOTION_DOT":0.0001673,"MEAN_MOTION_DDOT":0}]
